*******************************************************************************
JPL/HORIZONS               192 Nausikaa (A879 DA)          2020-Jun-22 06:33:38
Rec #:     192 (+COV) Soln.date: 2020-May-20_01:00:42   # obs: 2517 (1879-2020)
 
IAU76/J2000 helio. ecliptic osc. elements (au, days, deg., period=Julian yrs):
 
  EPOCH=  2452831.5 ! 2003-Jul-11.00 (TDB)         Residual RMS= .33683
   EC= .2474739839466417   QR= 1.807684836036467   TP= 2453161.9295926173
   OM= 343.4639022637893   W=  29.78778372727401   IN= 6.825576567059474
   A= 2.402155935441164    MA= 272.5255511785084   ADIST= 2.996627034845861
   PER= 3.72315            N= .264729456           ANGMOM= .025832031
   DAN= 1.85634            DDN= 2.87184            L= 13.0762985
   B= 3.3848248            MOID= .81148797         TP= 2004-Jun-05.4295926173
 
Asteroid physical parameters (km, seconds, rotational period in hours):
   GM= n.a.                RAD= 49.388             ROTPER= 13.625
   H= 7.3                  G= .030                 B-V= .927
                           ALBEDO= .327            STYP= Sl
 
ASTEROID comments: 
1: soln ref.= JPL#106, OCC=0           radar( 1 delay, 0 Dop.)
2: source=ORB
*******************************************************************************
 
 
*******************************************************************************
Ephemeris / WWW_USER Mon Jun 22 06:33:38 2020 Pasadena, USA      / Horizons
*******************************************************************************
Target body name: 192 Nausikaa (A879 DA)          {source: JPL#106}
Center body name: Solar System Barycenter (0)     {source: DE431}
Center-site name: BODY CENTER
*******************************************************************************
Start time      : A.D. 1969-Jun-28 00:00:00.0000 TDB
Stop  time      : A.D. 2071-May-04 00:00:00.0000 TDB
Step-size       : 7200 minutes
*******************************************************************************
Center geodetic : 0.00000000,0.00000000,0.0000000 {E-lon(deg),Lat(deg),Alt(km)}
Center cylindric: 0.00000000,0.00000000,0.0000000 {E-lon(deg),Dxy(km),Dz(km)}
Center radii    : (undefined)                                                  
Small perturbers: Yes                             {source: SB431-N16}
Output units    : AU-D
Output type     : GEOMETRIC cartesian states
Output format   : 2 (position and velocity)
Reference frame : Ecliptic of J2000.0
*******************************************************************************
Initial IAU76/J2000 heliocentric ecliptic osculating elements (au, days, deg.):
  EPOCH=  2452831.5 ! 2003-Jul-11.00 (TDB)         Residual RMS= .33683        
   EC= .2474739839466417   QR= 1.807684836036467   TP= 2453161.9295926173      
   OM= 343.4639022637893   W=  29.78778372727401   IN= 6.825576567059474       
  Equivalent ICRF heliocentric equatorial cartesian coordinates (au, au/d):
   X=-5.117071386100579E-01  Y=-2.128004155603317E+00  Z=-1.247859724086836E+00
  VX= 1.055498471293587E-02 VY= 1.940475950003601E-04 VZ= 5.244087907934372E-04
Asteroid physical parameters (km, seconds, rotational period in hours):        
   GM= n.a.                RAD= 49.388             ROTPER= 13.625              
   H= 7.3                  G= .030                 B-V= .927                   
                           ALBEDO= .327            STYP= Sl                    
*******************************************************************************
            JDTDB,            Calendar Date (TDB),        delta-T,                      X,                      Y,                      Z,                     VX,                     VY,                     VZ,
******************************************************************************************************************************************************************************************************************
$$SOE
2455240.500000000, A.D. 2010-Feb-13 00:00:00.0000,      66.185067, -2.818810153211737E+00, -9.806354690616310E-01, -2.092493950992053E-01,  3.168297093731538E-03, -8.015256131225914E-03, -8.080499470830047E-04,
2455245.500000000, A.D. 2010-Feb-18 00:00:00.0000,      66.185175, -2.802579289693027E+00, -1.020573642639752E+00, -2.132604581837925E-01,  3.323939240698672E-03, -7.959629801601016E-03, -7.963351293365605E-04,
2455250.500000000, A.D. 2010-Feb-23 00:00:00.0000,      66.185274, -2.785571863162365E+00, -1.060227929361801E+00, -2.172123449052090E-01,  3.478919959380452E-03, -7.901700818361175E-03, -7.843794168829252E-04,
2455255.500000000, A.D. 2010-Feb-28 00:00:00.0000,      66.185361, -2.767791216198342E+00, -1.099586806801631E+00, -2.211038509590814E-01,  3.633225003901991E-03, -7.841465398134307E-03, -7.721828660675295E-04,
2455260.500000000, A.D. 2010-Mar-05 00:00:00.0000,      66.185438, -2.749240763698510E+00, -1.138638731818152E+00, -2.249337721542869E-01,  3.786839687644384E-03, -7.778919039127097E-03, -7.597454661091965E-04,
2455265.500000000, A.D. 2010-Mar-10 00:00:00.0000,      66.185505, -2.729923995157237E+00, -1.177372136975360E+00, -2.287009040812940E-01,  3.939748853490075E-03, -7.714056525969544E-03, -7.470671406924843E-04,
2455270.500000000, A.D. 2010-Mar-15 00:00:00.0000,      66.185562, -2.709844477093895E+00, -1.215775426986465E+00, -2.324040417885169E-01,  4.091936843435035E-03, -7.646871934515497E-03, -7.341477495827428E-04,
2455275.500000000, A.D. 2010-Mar-20 00:00:00.0000,      66.185607, -2.689005855634680E+00, -1.253836975181928E+00, -2.360419794668108E-01,  4.243387467515237E-03, -7.577358636599576E-03, -7.209870902660018E-04,
2455280.500000000, A.D. 2010-Mar-25 00:00:00.0000,      66.185640, -2.667411859251571E+00, -1.291545120001147E+00, -2.396135101422188E-01,  4.394083972028182E-03, -7.505509304739838E-03, -7.075848996096258E-04,
2455285.500000000, A.D. 2010-Mar-30 00:00:00.0000,      66.185658, -2.645066301661872E+00, -1.328888161507498E+00, -2.431174253770575E-01,  4.544009007083433E-03, -7.431315916781364E-03, -6.939408555347997E-04,
2455290.500000000, A.D. 2010-Apr-04 00:00:00.0000,      66.185664, -2.621973084891616E+00, -1.365854357926633E+00, -2.465525149794001E-01,  4.693144593507811E-03, -7.354769760586922E-03, -6.800545787093671E-04,
2455295.500000000, A.D. 2010-Apr-09 00:00:00.0000,      66.185659, -2.598136202506395E+00, -1.402431922208745E+00, -2.499175667211683E-01,  4.841472088900160E-03, -7.275861438957551E-03, -6.659256343057487E-04,
2455300.500000000, A.D. 2010-Apr-14 00:00:00.0000,      66.185643, -2.573559743014704E+00, -1.438609018616235E+00, -2.532113660652517E-01,  4.988972152558000E-03, -7.194580874862031E-03, -6.515535338540078E-04,
2455305.500000000, A.D. 2010-Apr-19 00:00:00.0000,      66.185616, -2.548247893449548E+00, -1.474373759337915E+00, -2.564326959020504E-01,  5.135624709255926E-03, -7.110917316793661E-03, -6.369377371463563E-04,
2455310.500000000, A.D. 2010-Apr-24 00:00:00.0000,      66.185575, -2.522204943133616E+00, -1.509714201130125E+00, -2.595803362955489E-01,  5.281408912085821E-03, -7.024859344179615E-03, -6.220776541407322E-04,
2455315.500000000, A.D. 2010-Apr-29 00:00:00.0000,      66.185521, -2.495435287632279E+00, -1.544618341985251E+00, -2.626530642388832E-01,  5.426303104483012E-03, -6.936394872971364E-03, -6.069726468563901E-04,
2455320.500000000, A.D. 2010-May-04 00:00:00.0000,      66.185456, -2.467943432898617E+00, -1.579074117829170E+00, -2.656496534194418E-01,  5.570284781371784E-03, -6.845511161666248E-03, -5.916220313026461E-04,
2455325.500000000, A.D. 2010-May-09 00:00:00.0000,      66.185383, -2.439733999615315E+00, -1.613069399250384E+00, -2.685688739938238E-01,  5.713330549222949E-03, -6.752194817998105E-03, -5.760250795028802E-04,
2455330.500000000, A.D. 2010-May-14 00:00:00.0000,      66.185300, -2.410811727739559E+00, -1.646591988264606E+00, -2.714094923732721E-01,  5.855416084757411E-03, -6.656431806435435E-03, -5.601810216677705E-04,
2455335.500000000, A.D. 2010-May-19 00:00:00.0000,      66.185208, -2.381181481258262E+00, -1.679629615118912E+00, -2.741702710204076E-01,  5.996516092080737E-03, -6.558207456514256E-03, -5.440890485446322E-04,
2455340.500000000, A.D. 2010-May-24 00:00:00.0000,      66.185106, -2.350848253161802E+00, -1.712169935139630E+00, -2.768499682581658E-01,  6.136604258132457E-03, -6.457506471992079E-03, -5.277483139485821E-04,
2455345.500000000, A.D. 2010-May-29 00:00:00.0000,      66.184995, -2.319817170644845E+00, -1.744200525628051E+00, -2.794473380918419E-01,  6.275653206396643E-03, -6.354312940832539E-03, -5.111579374767226E-04,
2455350.500000000, A.D. 2010-Jun-03 00:00:00.0000,      66.184877, -2.288093500543032E+00, -1.775708882808241E+00, -2.819611300451781E-01,  6.413634448837417E-03, -6.248610346070078E-03, -4.943170074106953E-04,
2455355.500000000, A.D. 2010-Jun-08 00:00:00.0000,      66.184755, -2.255682655014531E+00, -1.806682418831539E+00, -2.843900890114561E-01,  6.550518336009504E-03, -6.140381577635360E-03, -4.772245838183081E-04,
2455360.500000000, A.D. 2010-Jun-13 00:00:00.0000,      66.184628, -2.222590197475748E+00, -1.837108458842775E+00, -2.867329551206181E-01,  6.686274005270340E-03, -6.029608945230512E-03, -4.598797018670330E-04,
2455365.500000000, A.D. 2010-Jun-18 00:00:00.0000,      66.184497, -2.188821848800872E+00, -1.866974238113625E+00, -2.889884636235063E-01,  6.820869327021068E-03, -5.916274192319907E-03, -4.422813753557360E-04,
2455370.500000000, A.D. 2010-Jun-23 00:00:00.0000,      66.184360, -2.154383493795268E+00, -1.896266899248800E+00, -2.911553447942990E-01,  6.954270848923963E-03, -5.800358511270315E-03, -4.244286004613221E-04,
2455375.500000000, A.D. 2010-Jun-28 00:00:00.0000,      66.184220, -2.119281187952777E+00, -1.924973489470787E+00, -2.932323238521775E-01,  7.086443738141541E-03, -5.681842559644485E-03, -4.063203596820098E-04,
